0 FENGYUN 1C DEB
1 32189U 99025CUK 13281.18823048  .00002633  00000-0  15382-2 0  3378
2 32189 099.0016 260.5804 0039286 150.1692 210.2004 14.08874248319364
0 FENGYUN 1C DEB
1 32189U 99025CUK 13284.17097108  .00002670  00000-0  15594-2 0  3387
2 32189 099.0004 263.5547 0038501 142.1823 218.2371 14.08891493319786
0 FENGYUN 1C DEB
1 32189U 99025CUK 13287.15366862  .00002744  00000-0  16023-2 0  3395
2 32189 098.9992 266.5292 0037327 132.9693 227.4979 14.08910226320208
0 FENGYUN 1C DEB
1 32189U 99025CUK 13290.13632599  .00002848  00000-0  16615-2 0  3404
2 32189 098.9960 269.4925 0036889 122.4621 238.0715 14.08930228320621
0 FENGYUN 1C DEB
1 32189U 99025CUK 13291.13052573  .00002927  00000-0  17053-2 0  3419
2 32189 098.9970 270.4896 0038645 118.9603 241.6082 14.08938517320764
0 FENGYUN 1C DEB
1 32189U 99025CUK 13291.76964577  .00002950  00000-0  17144-2 0  3422
2 32189 099.0032 271.1499 0044842 118.3373 242.2702 14.08943046320855
